NORAD_CAT_ID,OBJECT_NAME,OBJECT_TYPE,EPOCH,MEAN_MOTION,ECCENTRICITY,INCLINATION,RA_OF_ASC_NODE,ARG_OF_PERICENTER,MEAN_ANOMALY,BSTAR,MEAN_MOTION_DOT,MEAN_MOTION_DDOT,TLE_LINE0,TLE_LINE1,TLE_LINE2,SEMIMAJOR_AXIS,PERIOD,APOGEE,PERIGEE,DECAYED
51467.0,STARLINK-3178,PAYLOAD,2022-12-13 19:33:50,15.08838825,0.0003242,53.2167,184.775,45.6735,314.4523,6.1973e-05,6.98e-06,0.0,0 STARLINK-3178,1 51467U 22010M   22347.81516370  .00000698  00000-0  61973-4 0  9990,2 51467  53.2167 184.7750 0003242  45.6735 314.4523 15.08838825 48891,6917.884,95.438,541.992,537.506,0.0
51467.0,STARLINK-3178,PAYLOAD,2022-12-14 13:03:05,15.08834029,0.0003181,53.216,181.5036,40.1127,320.01,5.3484e-05,5.62e-06,0.0,0 STARLINK-3178,1 51467U 22010M   22348.54380880  .00000562  00000-0  53484-4 0  9994,2 51467  53.2160 181.5036 0003181  40.1127 320.0100 15.08834029 49003,6917.899,95.438,541.964,537.563,0.0
51467.0,STARLINK-3178,PAYLOAD,2022-12-14 19:24:37,15.08838187,0.0003269,53.2168,180.3152,39.9692,320.154,5.0422e-05,5.14e-06,0.0,0 STARLINK-3178,1 51467U 22010M   22348.80876801  .00000514  00000-0  50422-4 0  9992,2 51467  53.2168 180.3152 0003269  39.9692 320.1540 15.08838187 48240,6917.886,95.438,542.012,537.489,0.0
51467.0,STARLINK-3178,PAYLOAD,2022-12-15 12:53:51,15.08842122,0.0003342,53.2167,177.0445,40.4487,319.6753,0.00011238,1.5e-05,0.0,0 STARLINK-3178,1 51467U 22010M   22349.53740389  .00001500  00000-0  11238-3 0  9991,2 51467  53.2167 177.0445 0003342  40.4487 319.6753 15.08842122 49152,6917.874,95.437,542.0509999999998,537.427,0.0
51467.0,STARLINK-3178,PAYLOAD,2022-12-15 19:15:24,15.08841804,0.0003356,53.2166,175.8547,41.0248,319.0997,0.00016883,2.4e-05,0.0,0 STARLINK-3178,1 51467U 22010M   22349.80236283  .00002400  00000-0  16883-3 0  9995,2 51467  53.2166 175.8547 0003356  41.0248 319.0997 15.08841804 48392,6917.875,95.437,542.062,537.418,0.0
51467.0,STARLINK-3178,PAYLOAD,2022-12-16 12:44:38,15.08841724,0.0003389,53.2165,172.5835,42.5931,317.5324,0.00010876,1.443e-05,0.0,0 STARLINK-3178,1 51467U 22010M   22350.53100537  .00001443  00000-0  10876-3 0  9991,2 51467  53.2165 172.5835 0003389  42.5931 317.5324 15.08841724 48507,6917.875,95.437,542.085,537.396,0.0
51467.0,STARLINK-3178,PAYLOAD,2022-12-16 20:41:34,15.08836296,0.00034,53.2166,171.0967,42.9655,317.1603,4.4723e-05,4.23e-06,0.0,0 STARLINK-3178,1 51467U 22010M   22350.86220995  .00000423  00000-0  44723-4 0  9994,2 51467  53.2166 171.0967 0003400  42.9655 317.1603 15.08836296 49357,6917.892,95.438,542.109,537.405,0.0
51467.0,STARLINK-3178,PAYLOAD,2022-12-17 12:35:25,15.08842309,0.0003427,53.2166,168.1229,44.1733,315.9532,4.2763e-05,3.92e-06,0.0,0 STARLINK-3178,1 51467U 22010M   22351.52460608  .00000392  00000-0  42763-4 0  9992,2 51467  53.2166 168.1229 0003427  44.1733 315.9532 15.08842309 48656,6917.873000000001,95.437,542.109,537.368,0.0
51467.0,STARLINK-3178,PAYLOAD,2022-12-17 18:56:58,15.08843748,0.0003439,53.2167,166.9335,44.4547,315.672,4.9642e-05,5.01e-06,0.0,0 STARLINK-3178,1 51467U 22010M   22351.78956447  .00000501  00000-0  49642-4 0  9996,2 51467  53.2167 166.9335 0003439  44.4547 315.6720 15.08843748 49497,6917.869000000002,95.437,542.113,537.355,0.0
51467.0,STARLINK-3178,PAYLOAD,2022-12-18 04:29:16,15.08846471,0.0003456,53.2171,165.1494,44.2932,315.8336,4.0743e-05,3.6000000000000007e-06,0.0,0 STARLINK-3178,1 51467U 22010M   22352.18700211  .00000360  00000-0  40743-4 0  9993,2 51467  53.2171 165.1494 0003456  44.2932 315.8336 15.08846471 48753,6917.861,95.437,542.116,537.335,0.0
51467.0,STARLINK-3178,PAYLOAD,2022-12-18 20:23:09,15.0883111,0.0003408,53.2172,162.1759,44.5741,315.5524,9.4646e-06,-1.38e-06,0.0,0 STARLINK-3178,1 51467U 22010M   22352.84941334 -.00000138  00000-0  94646-5 0  9995,2 51467  53.2172 162.1759 0003408  44.5741 315.5524 15.08831110 48854,6917.908,95.438,542.13,537.415,0.0
51467.0,STARLINK-3178,PAYLOAD,2022-12-19 20:13:55,15.08840031,0.0003421,53.2176,157.7152,46.4833,313.6443,8.6133e-05,1.082e-05,0.0,0 STARLINK-3178,1 51467U 22010M   22353.84300817  .00001082  00000-0  86133-4 0  9990,2 51467  53.2176 157.7152 0003421  46.4833 313.6443 15.08840031 49002,6917.88,95.438,542.112,537.379,0.0
51467.0,STARLINK-3178,PAYLOAD,2022-12-20 05:46:14,15.08849061,0.0003387,53.2175,155.9311,46.5712,313.5562,6.514800000000001e-05,7.48e-06,0.0,0 STARLINK-3178,1 51467U 22010M   22354.24044220  .00000748  00000-0  65148-4 0  9999,2 51467  53.2175 155.9311 0003387  46.5712 313.5562 15.08849061 49863,6917.853,95.437,542.061,537.375,0.0
51467.0,STARLINK-3178,PAYLOAD,2022-12-20 20:04:42,15.08839431,0.0003281,53.2179,153.2547,45.5224,314.6036,0.000115,1.542e-05,0.0,0 STARLINK-3178,1 51467U 22010M   22354.83660462  .00001542  00000-0  11500-3 0  9991,2 51467  53.2179 153.2547 0003281  45.5224 314.6036 15.08839431 49957,6917.882,95.438,542.0169999999998,537.477,0.0
51467.0,STARLINK-3178,PAYLOAD,2022-12-21 10:23:11,15.08839585,0.0003333,53.2173,150.5795,46.896,313.231,5.391e-05,5.69e-06,0.0,0 STARLINK-3178,1 51467U 22010M   22355.43276689  .00000569  00000-0  53910-4 0  9992,2 51467  53.2173 150.5795 0003333  46.8960 313.2310 15.08839585 49247,6917.882,95.438,542.052,537.441,0.0
51467.0,STARLINK-3178,PAYLOAD,2022-12-21 16:44:44,15.0883283,0.0003329,53.2174,149.3893,47.55,312.5773,-4.2234e-06,-3.56e-06,0.0,0 STARLINK-3178,1 51467U 22010M   22355.69773300 -.00000356  00000-0 -42234-5 0  9996,2 51467  53.2174 149.3893 0003329  47.5500 312.5773 15.08832830 50081,6917.901999999999,95.438,542.07,537.464,0.0
51467.0,STARLINK-3178,PAYLOAD,2022-12-22 03:52:25,15.08840457,0.0003375,53.2175,147.308,47.2655,312.862,-1.502e-05,-5.28e-06,0.0,0 STARLINK-3178,1 51467U 22010M   22356.16140884 -.00000528  00000-0 -15020-4 0  9997,2 51467  53.2175 147.3080 0003375  47.2655 312.8620 15.08840457 50153,6917.879,95.438,542.0790000000002,537.409,0.0
51467.0,STARLINK-3178,PAYLOAD,2022-12-22 16:35:31,15.08803149,0.0002968,53.2174,144.929,49.7054,310.4197,0.00060374,9.324e-05,0.0,0 STARLINK-3178,1 51467U 22010M   22356.69133752  .00009324  00000-0  60374-3 0  9993,2 51467  53.2174 144.9290 0002968  49.7054 310.4197 15.08803149 50234,6917.993,95.44,541.911,537.805,0.0
51467.0,STARLINK-3178,PAYLOAD,2022-12-23 13:15:31,15.08836124,0.0003343,53.2175,141.0624,49.5247,310.6036,7.5292e-05,9.1e-06,0.0,0 STARLINK-3178,1 51467U 22010M   22357.55244621  .00000910  00000-0  75292-4 0  9995,2 51467  53.2175 141.0624 0003343  49.5247 310.6036 15.08836124 50361,6917.892,95.438,542.07,537.445,0.0
51467.0,STARLINK-3178,PAYLOAD,2022-12-23 14:50:54,15.08837643,0.0003342,53.2175,140.7652,49.3126,310.8156,8.9899e-05,1.142e-05,0.0,0 STARLINK-3178,1 51467U 22010M   22357.61868544  .00001142  00000-0  89899-4 0  9994,2 51467  53.2175 140.7652 0003342  49.3126 310.8156 15.08837643 49574,6917.888000000001,95.438,542.065,537.441,0.0
51467.0,STARLINK-3178,PAYLOAD,2022-12-24 09:55:31,15.08844971,0.0003375,53.2175,137.1969,50.2315,309.8974,7.6993e-05,9.37e-06,0.0,0 STARLINK-3178,1 51467U 22010M   22358.41356069  .00000937  00000-0  76993-4 0  9999,2 51467  53.2175 137.1969 0003375  50.2315 309.8974 15.08844971 50493,6917.865,95.437,542.065,537.395,0.0
51467.0,STARLINK-3178,PAYLOAD,2022-12-24 16:17:04,15.08842257,0.0003403,53.2174,136.0076,51.1836,308.946,5.5806e-05,6e-06,0.0,0 STARLINK-3178,1 51467U 22010M   22358.67852289  .00000600  00000-0  55806-4 0  9999,2 51467  53.2174 136.0076 0003403  51.1836 308.9460 15.08842257 49739,6917.873000000001,95.437,542.0930000000002,537.384,0.0
51467.0,STARLINK-3178,PAYLOAD,2022-12-25 01:49:23,15.08828427,0.0003361,53.2176,134.2229,48.9648,311.1635,0.00025348,3.747e-05,0.0,0 STARLINK-3178,1 51467U 22010M   22359.07596543  .00003747  00000-0  25348-3 0  9994,2 51467  53.2176 134.2229 0003361  48.9648 311.1635 15.08828427 50598,6917.916,95.438,542.106,537.456,0.0
51467.0,STARLINK-3178,PAYLOAD,2022-12-25 11:21:42,15.08838135,0.0003332,53.2181,132.4406,39.2945,320.8288,1.3014e-05,-8.2e-07,0.0,0 STARLINK-3178,1 51467U 22010M   22359.47340563 -.00000082  00000-0  13014-4 0  9995,2 51467  53.2181 132.4406 0003332  39.2945 320.8288 15.08838135 49857,6917.886,95.438,542.056,537.446,0.0
51467.0,STARLINK-3178,PAYLOAD,2022-12-25 16:07:52,15.08827435,0.0003315,53.2189,131.5456,44.0965,316.0291,-9.2479e-05,-1.76e-05,0.0,0 STARLINK-3178,1 51467U 22010M   22359.67213677 -.00001760  00000-0 -92479-4 0  9999,2 51467  53.2189 131.5456 0003315  44.0965 316.0291 15.08827435 50682,6917.919,95.438,542.077,537.491,0.0
51467.0,STARLINK-3178,PAYLOAD,2022-12-26 01:40:11,15.08831361,0.0003316,53.218,129.7629,44.9861,315.14,-6.7987e-05,-1.371e-05,0.0,0 STARLINK-3178,1 51467U 22010M   22360.06957521 -.00001371  00000-0 -67987-4 0  9991,2 51467  53.2180 129.7629 0003316  44.9861 315.1400 15.08831361 49941,6917.906999999997,95.438,542.066,537.4780000000002,0.0
51467.0,STARLINK-3178,PAYLOAD,2022-12-26 19:09:25,15.08841015,0.0003296,53.218,126.4917,47.1727,312.9542,5.4248e-05,5.75e-06,0.0,0 STARLINK-3178,1 51467U 22010M   22360.79820802  .00000575  00000-0  54248-4 0  9991,2 51467  53.2180 126.4917 0003296  47.1727 312.9542 15.08841015 50859,6917.877,95.437,542.0219999999998,537.462,0.0
51467.0,STARLINK-3178,PAYLOAD,2022-12-27 01:30:56,15.08851376,0.0003286,53.2179,125.3029,46.2134,313.9129,0.00012819,1.753e-05,0.0,0 STARLINK-3178,1 51467U 22010M   22361.06315921  .00001753  00000-0  12819-3 0  9999,2 51467  53.2179 125.3029 0003286  46.2134 313.9129 15.08851376 50897,6917.846,95.437,541.984,537.437,0.0
51467.0,STARLINK-3178,PAYLOAD,2022-12-27 17:24:48,15.08841468,0.0003353,53.2179,122.3296,47.7005,312.4271,0.0002176,3.176e-05,0.0,0 STARLINK-3178,1 51467U 22010M   22361.72556192  .00003176  00000-0  21760-3 0  9995,2 51467  53.2179 122.3296 0003353  47.7005 312.4271 15.08841468 50194,6917.876,95.437,542.06,537.4209999999998,0.0
